{
  "type": "FeatureCollection",
  "features": [
    {
      "type": "Feature",
      "properties": {
        "norad_id": 66476,
        "name": "STARLINK-35372",
        "group": "last-30-days",
        "lat": 41.49794797811326,
        "lon": -145.32436922155318,
        "alt_km": 409.46115162147635,
        "timestamp": "2025-12-06T16:45:41.515204+00:00",
        "meta_object_name": "STARLINK-35372",
        "meta_object_id": "2025-262W",
        "meta_epoch": "2025-12-06T08:00:01.999872",
        "meta_mean_motion": 15.50658794,
        "meta_eccentricity": 0.00013057,
        "meta_inclination": 43.0002,
        "meta_ra_of_asc_node": 108.4986,
        "meta_arg_of_pericenter": 260.8422,
        "meta_mean_anomaly": 322.6116,
        "meta_ephemeris_type": 0,
        "meta_classification_type": "U",
        "meta_norad_cat_id": 66476,
        "meta_element_set_no": 999,
        "meta_rev_at_epoch": 450,
        "meta_bstar": -0.0032426403,
        "meta_mean_motion_dot": -0.00186636,
        "meta_mean_motion_ddot": 0,
        "tle_line1": "1 66476U 25262W   25340.33335648 -.00186636  00000+0 -32426-2 0  9995",
        "tle_line2": "2 66476  43.0002 108.4986 0001305 260.8422 322.6116 15.50658794  4509"
      },
      "geometry": {
        "type": "Point",
        "coordinates": [
          -145.32436922155318,
          41.49794797811326
        ]
      }
    },
    {
      "type": "Feature",
      "properties": {
        "norad_id": 66477,
        "name": "STARLINK-35354",
        "group": "last-30-days",
        "lat": 40.57272495843218,
        "lon": -140.41187763167972,
        "alt_km": 409.42897737167004,
        "timestamp": "2025-12-06T16:45:41.515217+00:00",
        "meta_object_name": "STARLINK-35354",
        "meta_object_id": "2025-262X",
        "meta_epoch": "2025-12-06T08:00:01.999872",
        "meta_mean_motion": 15.50620003,
        "meta_eccentricity": 0.00011997,
        "meta_inclination": 43.0004,
        "meta_ra_of_asc_node": 108.4882,
        "meta_arg_of_pericenter": 256.3913,
        "meta_mean_anomaly": 330.8998,
        "meta_ephemeris_type": 0,
        "meta_classification_type": "U",
        "meta_norad_cat_id": 66477,
        "meta_element_set_no": 999,
        "meta_rev_at_epoch": 460,
        "meta_bstar": -0.0019552031,
        "meta_mean_motion_dot": -0.00113559,
        "meta_mean_motion_ddot": 0,
        "tle_line1": "1 66477U 25262X   25340.33335648 -.00113559  00000+0 -19552-2 0  9995",
        "tle_line2": "2 66477  43.0004 108.4882 0001199 256.3913 330.8998 15.50620003  4605"
      },
      "geometry": {
        "type": "Point",
        "coordinates": [
          -140.41187763167972,
          40.57272495843218
        ]
      }
    },
    {
      "type": "Feature",
      "properties": {
        "norad_id": 66478,
        "name": "STARLINK-35283",
        "group": "last-30-days",
        "lat": 40.02818304336178,
        "lon": -137.9899546115817,
        "alt_km": 409.7280111478867,
        "timestamp": "2025-12-06T16:45:41.515227+00:00",
        "meta_object_name": "STARLINK-35283",
        "meta_object_id": "2025-262Y",
        "meta_epoch": "2025-12-06T08:00:01.999872",
        "meta_mean_motion": 15.50648692,
        "meta_eccentricity": 0.00013962,
        "meta_inclination": 43.0003,
        "meta_ra_of_asc_node": 108.483,
        "meta_arg_of_pericenter": 267.899,
        "meta_mean_anomaly": 321.3042,
        "meta_ephemeris_type": 0,
        "meta_classification_type": "U",
        "meta_norad_cat_id": 66478,
        "meta_element_set_no": 999,
        "meta_rev_at_epoch": 460,
        "meta_bstar": -0.0028213359,
        "meta_mean_motion_dot": -0.00162863,
        "meta_mean_motion_ddot": 0,
        "tle_line1": "1 66478U 25262Y   25340.33335648 -.00162863  00000+0 -28213-2 0  9992",
        "tle_line2": "2 66478  43.0003 108.4830 0001396 267.8990 321.3042 15.50648692  4608"
      },
      "geometry": {
        "type": "Point",
        "coordinates": [
          -137.9899546115817,
          40.02818304336178
        ]
      }
    },
    {
      "type": "Feature",
      "properties": {
        "norad_id": 66479,
        "name": "STARLINK-35581",
        "group": "last-30-days",
        "lat": 41.06162405201812,
        "lon": -142.85270216611272,
        "alt_km": 409.34770596159433,
        "timestamp": "2025-12-06T16:45:41.515240+00:00",
        "meta_object_name": "STARLINK-35581",
        "meta_object_id": "2025-262Z",
        "meta_epoch": "2025-12-06T08:00:01.999872",
        "meta_mean_motion": 15.50616306,
        "meta_eccentricity": 0.00011425,
        "meta_inclination": 43.0003,
        "meta_ra_of_asc_node": 108.492,
        "meta_arg_of_pericenter": 260.3714,
        "meta_mean_anomaly": 325.0083,
        "meta_ephemeris_type": 0,
        "meta_classification_type": "U",
        "meta_norad_cat_id": 66479,
        "meta_element_set_no": 999,
        "meta_rev_at_epoch": 460,
        "meta_bstar": -0.0018217151,
        "meta_mean_motion_dot": -0.00105917,
        "meta_mean_motion_ddot": 0,
        "tle_line1": "1 66479U 25262Z   25340.33335648 -.00105917  00000+0 -18217-2 0  9993",
        "tle_line2": "2 66479  43.0003 108.4920 0001142 260.3714 325.0083 15.50616306  4603"
      },
      "geometry": {
        "type": "Point",
        "coordinates": [
          -142.85270216611272,
          41.06162405201812
        ]
      }
    },
    {
      "type": "Feature",
      "properties": {
        "norad_id": 66480,
        "name": "STARLINK-35670",
        "group": "last-30-days",
        "lat": 39.43469834101739,
        "lon": -135.61112907709963,
        "alt_km": 409.7515137529608,
        "timestamp": "2025-12-06T16:45:41.515286+00:00",
        "meta_object_name": "STARLINK-35670",
        "meta_object_id": "2025-262AA",
        "meta_epoch": "2025-12-06T08:00:01.999872",
        "meta_mean_motion": 15.50680455,
        "meta_eccentricity": 0.00012617,
        "meta_inclination": 43.0003,
        "meta_ra_of_asc_node": 108.4778,
        "meta_arg_of_pericenter": 263.182,
        "meta_mean_anomaly": 327.9367,
        "meta_ephemeris_type": 0,
        "meta_classification_type": "U",
        "meta_norad_cat_id": 66480,
        "meta_element_set_no": 999,
        "meta_rev_at_epoch": 460,
        "meta_bstar": -0.0039466739,
        "meta_mean_motion_dot": -0.00226127,
        "meta_mean_motion_ddot": 0,
        "tle_line1": "1 66480U 25262AA  25340.33335648 -.00226127  00000+0 -39467-2 0  9992",
        "tle_line2": "2 66480  43.0003 108.4778 0001261 263.1820 327.9367 15.50680455  4609"
      },
      "geometry": {
        "type": "Point",
        "coordinates": [
          -135.61112907709963,
          39.43469834101739
        ]
      }
    },
    {
      "type": "Feature",
      "properties": {
        "norad_id": 66481,
        "name": "STARLINK-35698",
        "group": "last-30-days",
        "lat": 38.79920648108028,
        "lon": -133.2938402416306,
        "alt_km": 409.7207979377936,
        "timestamp": "2025-12-06T16:45:41.515300+00:00",
        "meta_object_name": "STARLINK-35698",
        "meta_object_id": "2025-262AB",
        "meta_epoch": "2025-12-06T08:00:01.999872",
        "meta_mean_motion": 15.50633683,
        "meta_eccentricity": 0.00012158,
        "meta_inclination": 43.0005,
        "meta_ra_of_asc_node": 108.4725,
        "meta_arg_of_pericenter": 262.1859,
        "meta_mean_anomaly": 330.8564,
        "meta_ephemeris_type": 0,
        "meta_classification_type": "U",
        "meta_norad_cat_id": 66481,
        "meta_element_set_no": 999,
        "meta_rev_at_epoch": 460,
        "meta_bstar": -0.0022953101,
        "meta_mean_motion_dot": -0.0013299,
        "meta_mean_motion_ddot": 0,
        "tle_line1": "1 66481U 25262AB  25340.33335648 -.00132990  00000+0 -22953-2 0  9999",
        "tle_line2": "2 66481  43.0005 108.4725 0001215 262.1859 330.8564 15.50633683  4607"
      },
      "geometry": {
        "type": "Point",
        "coordinates": [
          -133.2938402416306,
          38.79920648108028
        ]
      }
    },
    {
      "type": "Feature",
      "properties": {
        "norad_id": 66482,
        "name": "STARLINK-35648",
        "group": "last-30-days",
        "lat": 38.11311914146362,
        "lon": -131.00143553800427,
        "alt_km": 409.9178105043802,
        "timestamp": "2025-12-06T16:45:41.515311+00:00",
        "meta_object_name": "STARLINK-35648",
        "meta_object_id": "2025-262AC",
        "meta_epoch": "2025-12-06T08:00:01.999872",
        "meta_mean_motion": 15.50661475,
        "meta_eccentricity": 0.00012935,
        "meta_inclination": 43.0005,
        "meta_ra_of_asc_node": 108.468,
        "meta_arg_of_pericenter": 264.7376,
        "meta_mean_anomaly": 330.2162,
        "meta_ephemeris_type": 0,
        "meta_classification_type": "U",
        "meta_norad_cat_id": 66482,
        "meta_element_set_no": 999,
        "meta_rev_at_epoch": 445,
        "meta_bstar": -0.0031915589,
        "meta_mean_motion_dot": -0.00183785,
        "meta_mean_motion_ddot": 0,
        "tle_line1": "1 66482U 25262AC  25340.33335648 -.00183785  00000+0 -31916-2 0  9997",
        "tle_line2": "2 66482  43.0005 108.4680 0001293 264.7376 330.2162 15.50661475  4457"
      },
      "geometry": {
        "type": "Point",
        "coordinates": [
          -131.00143553800427,
          38.11311914146362
        ]
      }
    }
  ]
}